[{"OBJECT_NAME":"ONEWEB-0593","OBJECT_ID":"2022-166T","EPOCH":"2025-08-19T18:15:43.378272","MEAN_MOTION":13.2182713,"ECCENTRICITY":0.0002199,"INCLINATION":87.9248,"RA_OF_ASC_NODE":304.129,"ARG_OF_PERICENTER":99.9197,"MEAN_ANOMALY":260.2185,"EPHEMERIS_TYPE":0,"CLASSIFICATION_TYPE":"U","NORAD_CAT_ID":54659,"ELEMENT_SET_NO":999,"REV_AT_EPOCH":13172,"BSTAR":-0.00016419,"MEAN_MOTION_DOT":-5.5e-7,"MEAN_MOTION_DDOT":0},{"OBJECT_NAME":"ONEWEB-0594","OBJECT_ID":"2022-166U","EPOCH":"2025-08-19T16:53:58.778592","MEAN_MOTION":13.21826886,"ECCENTRICITY":0.0001988,"INCLINATION":87.9255,"RA_OF_ASC_NODE":304.156,"ARG_OF_PERICENTER":95.656,"MEAN_ANOMALY":264.48,"EPHEMERIS_TYPE":0,"CLASSIFICATION_TYPE":"U","NORAD_CAT_ID":54660,"ELEMENT_SET_NO":999,"REV_AT_EPOCH":13173,"BSTAR":7.1389e-5,"MEAN_MOTION_DOT":4.2e-7,"MEAN_MOTION_DDOT":0},{"OBJECT_NAME":"ONEWEB-0595","OBJECT_ID":"2022-166V","EPOCH":"2025-08-19T18:11:10.114944","MEAN_MOTION":13.21827529,"ECCENTRICITY":0.0001813,"INCLINATION":87.925,"RA_OF_ASC_NODE":304.1213,"ARG_OF_PERICENTER":99.2383,"MEAN_ANOMALY":260.8956,"EPHEMERIS_TYPE":0,"CLASSIFICATION_TYPE":"U","NORAD_CAT_ID":54661,"ELEMENT_SET_NO":999,"REV_AT_EPOCH":13171,"BSTAR":-9.4121e-5,"MEAN_MOTION_DOT":-2.6e-7,"MEAN_MOTION_DDOT":0},{"OBJECT_NAME":"ONEWEB-0596","OBJECT_ID":"2022-166W","EPOCH":"2025-08-19T17:32:34.333152","MEAN_MOTION":13.21826772,"ECCENTRICITY":0.0001971,"INCLINATION":87.9254,"RA_OF_ASC_NODE":304.1413,"ARG_OF_PERICENTER":99.9984,"MEAN_ANOMALY":260.1372,"EPHEMERIS_TYPE":0,"CLASSIFICATION_TYPE":"U","NORAD_CAT_ID":54662,"ELEMENT_SET_NO":999,"REV_AT_EPOCH":13171,"BSTAR":-0.00030028,"MEAN_MOTION_DOT":-1.11e-6,"MEAN_MOTION_DDOT":0},{"OBJECT_NAME":"ONEWEB-0597","OBJECT_ID":"2022-166X","EPOCH":"2025-08-19T17:05:20.666400","MEAN_MOTION":13.21826725,"ECCENTRICITY":0.0002146,"INCLINATION":87.9254,"RA_OF_ASC_NODE":304.1484,"ARG_OF_PERICENTER":99.5971,"MEAN_ANOMALY":260.5405,"EPHEMERIS_TYPE":0,"CLASSIFICATION_TYPE":"U","NORAD_CAT_ID":54663,"ELEMENT_SET_NO":999,"REV_AT_EPOCH":13171,"BSTAR":-7.5755e-5,"MEAN_MOTION_DOT":-1.8e-7,"MEAN_MOTION_DDOT":0},{"OBJECT_NAME":"ONEWEB-0600","OBJECT_ID":"2022-166Y","EPOCH":"2025-08-19T16:40:21.175392","MEAN_MOTION":13.21827052,"ECCENTRICITY":0.0002154,"INCLINATION":87.9246,"RA_OF_ASC_NODE":304.1471,"ARG_OF_PERICENTER":96.0651,"MEAN_ANOMALY":264.0729,"EPHEMERIS_TYPE":0,"CLASSIFICATION_TYPE":"U","NORAD_CAT_ID":54664,"ELEMENT_SET_NO":999,"REV_AT_EPOCH":13168,"BSTAR":7.3582e-5,"MEAN_MOTION_DOT":4.3e-7,"MEAN_MOTION_DDOT":0},{"OBJECT_NAME":"ONEWEB-0601","OBJECT_ID":"2022-166Z","EPOCH":"2025-08-19T18:17:58.041312","MEAN_MOTION":13.21827864,"ECCENTRICITY":0.0002345,"INCLINATION":87.925,"RA_OF_ASC_NODE":304.1491,"ARG_OF_PERICENTER":101.8321,"MEAN_ANOMALY":258.3076,"EPHEMERIS_TYPE":0,"CLASSIFICATION_TYPE":"U","NORAD_CAT_ID":54665,"ELEMENT_SET_NO":999,"REV_AT_EPOCH":13188,"BSTAR":3.93e-5,"MEAN_MOTION_DOT":2.9e-7,"MEAN_MOTION_DDOT":0},{"OBJECT_NAME":"ONEWEB-0602","OBJECT_ID":"2022-166AA","EPOCH":"2025-08-19T17:27:22.647744","MEAN_MOTION":13.21875799,"ECCENTRICITY":0.0002445,"INCLINATION":87.9256,"RA_OF_ASC_NODE":304.1571,"ARG_OF_PERICENTER":91.973,"MEAN_ANOMALY":268.1684,"EPHEMERIS_TYPE":0,"CLASSIFICATION_TYPE":"U","NORAD_CAT_ID":54666,"ELEMENT_SET_NO":999,"REV_AT_EPOCH":13172,"BSTAR":-0.00025841,"MEAN_MOTION_DOT":-9.4e-7,"MEAN_MOTION_DDOT":0},{"OBJECT_NAME":"ONEWEB-0603","OBJECT_ID":"2022-166AB","EPOCH":"2025-08-19T17:34:49.036800","MEAN_MOTION":13.21828077,"ECCENTRICITY":0.0002269,"INCLINATION":87.9249,"RA_OF_ASC_NODE":304.0917,"ARG_OF_PERICENTER":98.9579,"MEAN_ANOMALY":261.1812,"EPHEMERIS_TYPE":0,"CLASSIFICATION_TYPE":"U","NORAD_CAT_ID":54667,"ELEMENT_SET_NO":999,"REV_AT_EPOCH":13165,"BSTAR":-0.00034767,"MEAN_MOTION_DOT":-1.31e-6,"MEAN_MOTION_DDOT":0},{"OBJECT_NAME":"ONEWEB-0604","OBJECT_ID":"2022-166AC","EPOCH":"2025-08-19T15:27:41.541984","MEAN_MOTION":13.21827174,"ECCENTRICITY":0.0002234,"INCLINATION":87.9256,"RA_OF_ASC_NODE":304.1328,"ARG_OF_PERICENTER":95.7325,"MEAN_ANOMALY":264.4064,"EPHEMERIS_TYPE":0,"CLASSIFICATION_TYPE":"U","NORAD_CAT_ID":54668,"ELEMENT_SET_NO":999,"REV_AT_EPOCH":13160,"BSTAR":-5.5675e-5,"MEAN_MOTION_DOT":-1.0e-7,"MEAN_MOTION_DDOT":0},{"OBJECT_NAME":"ONEWEB-0605","OBJECT_ID":"2022-166AD","EPOCH":"2025-08-20T05:50:38.364576","MEAN_MOTION":13.2182277,"ECCENTRICITY":0.0002491,"INCLINATION":87.9252,"RA_OF_ASC_NODE":304.044,"ARG_OF_PERICENTER":110.0176,"MEAN_ANOMALY":250.1226,"EPHEMERIS_TYPE":0,"CLASSIFICATION_TYPE":"U","NORAD_CAT_ID":54669,"ELEMENT_SET_NO":999,"REV_AT_EPOCH":13222,"BSTAR":5.5269e-5,"MEAN_MOTION_DOT":3.6e-7,"MEAN_MOTION_DDOT":0},{"OBJECT_NAME":"ONEWEB-0606","OBJECT_ID":"2022-166AE","EPOCH":"2025-08-19T17:39:24.111936","MEAN_MOTION":13.21826722,"ECCENTRICITY":0.0001799,"INCLINATION":87.9253,"RA_OF_ASC_NODE":304.1559,"ARG_OF_PERICENTER":97.3244,"MEAN_ANOMALY":262.8094,"EPHEMERIS_TYPE":0,"CLASSIFICATION_TYPE":"U","NORAD_CAT_ID":54670,"ELEMENT_SET_NO":999,"REV_AT_EPOCH":13174,"BSTAR":-0.00019075,"MEAN_MOTION_DOT":-6.6e-7,"MEAN_MOTION_DDOT":0},{"OBJECT_NAME":"ONEWEB-0607","OBJECT_ID":"2022-166AF","EPOCH":"2025-08-19T16:51:44.915616","MEAN_MOTION":13.21825627,"ECCENTRICITY":0.0002188,"INCLINATION":87.9252,"RA_OF_ASC_NODE":304.1268,"ARG_OF_PERICENTER":98.725,"MEAN_ANOMALY":261.4132,"EPHEMERIS_TYPE":0,"CLASSIFICATION_TYPE":"U","NORAD_CAT_ID":54671,"ELEMENT_SET_NO":999,"REV_AT_EPOCH":13171,"BSTAR":2.4834e-5,"MEAN_MOTION_DOT":2.3e-7,"MEAN_MOTION_DDOT":0},{"OBJECT_NAME":"ONEWEB-0608","OBJECT_ID":"2022-166AG","EPOCH":"2025-08-19T17:00:44.753184","MEAN_MOTION":13.21828253,"ECCENTRICITY":0.0002531,"INCLINATION":87.9246,"RA_OF_ASC_NODE":304.1107,"ARG_OF_PERICENTER":102.3625,"MEAN_ANOMALY":257.7792,"EPHEMERIS_TYPE":0,"CLASSIFICATION_TYPE":"U","NORAD_CAT_ID":54672,"ELEMENT_SET_NO":999,"REV_AT_EPOCH":13172,"BSTAR":4.5129e-5,"MEAN_MOTION_DOT":3.2e-7,"MEAN_MOTION_DDOT":0},{"OBJECT_NAME":"ONEWEB-0610","OBJECT_ID":"2022-166AH","EPOCH":"2025-08-19T18:22:32.244672","MEAN_MOTION":13.2182538,"ECCENTRICITY":0.0002602,"INCLINATION":87.9252,"RA_OF_ASC_NODE":304.1349,"ARG_OF_PERICENTER":103.7332,"MEAN_ANOMALY":256.4091,"EPHEMERIS_TYPE":0,"CLASSIFICATION_TYPE":"U","NORAD_CAT_ID":54673,"ELEMENT_SET_NO":999,"REV_AT_EPOCH":13163,"BSTAR":3.2329e-5,"MEAN_MOTION_DOT":2.6e-7,"MEAN_MOTION_DDOT":0},{"OBJECT_NAME":"ONEWEB-0611","OBJECT_ID":"2022-166AJ","EPOCH":"2025-08-19T18:13:25.973760","MEAN_MOTION":13.21826519,"ECCENTRICITY":0.000184,"INCLINATION":87.9249,"RA_OF_ASC_NODE":304.1321,"ARG_OF_PERICENTER":92.7901,"MEAN_ANOMALY":267.3444,"EPHEMERIS_TYPE":0,"CLASSIFICATION_TYPE":"U","NORAD_CAT_ID":54674,"ELEMENT_SET_NO":999,"REV_AT_EPOCH":13162,"BSTAR":0.0007978,"MEAN_MOTION_DOT":3.43e-6,"MEAN_MOTION_DDOT":0},{"OBJECT_NAME":"ONEWEB-0612","OBJECT_ID":"2022-166AK","EPOCH":"2025-08-19T16:42:37.833408","MEAN_MOTION":13.21826887,"ECCENTRICITY":0.0002204,"INCLINATION":87.9252,"RA_OF_ASC_NODE":304.1226,"ARG_OF_PERICENTER":100.0518,"MEAN_ANOMALY":260.0865,"EPHEMERIS_TYPE":0,"CLASSIFICATION_TYPE":"U","NORAD_CAT_ID":54675,"ELEMENT_SET_NO":999,"REV_AT_EPOCH":13160,"BSTAR":4.776e-5,"MEAN_MOTION_DOT":3.3e-7,"MEAN_MOTION_DDOT":0}]
