ONEWEB-0593             
1 54659U 22166T   25231.76091873 -.00000055  00000+0 -16419-3 0  9995
2 54659  87.9248 304.1290 0002199  99.9197 260.2185 13.21827130131729
ONEWEB-0594             
1 54660U 22166U   25231.70415253  .00000042  00000+0  71389-4 0  9995
2 54660  87.9255 304.1560 0001988  95.6560 264.4800 13.21826886131739
ONEWEB-0595             
1 54661U 22166V   25231.75775596 -.00000026  00000+0 -94121-4 0  9993
2 54661  87.9250 304.1213 0001813  99.2383 260.8956 13.21827529131715
ONEWEB-0596             
1 54662U 22166W   25231.73095293 -.00000111  00000+0 -30028-3 0  9991
2 54662  87.9254 304.1413 0001971  99.9984 260.1372 13.21826772131715
ONEWEB-0597             
1 54663U 22166X   25231.71204475 -.00000018  00000+0 -75755-4 0  9997
2 54663  87.9254 304.1484 0002146  99.5971 260.5405 13.21826725131710
ONEWEB-0600             
1 54664U 22166Y   25231.69468953  .00000043  00000+0  73582-4 0  9990
2 54664  87.9246 304.1471 0002154  96.0651 264.0729 13.21827052131682
ONEWEB-0601             
1 54665U 22166Z   25231.76247733  .00000029  00000+0  39300-4 0  9994
2 54665  87.9250 304.1491 0002345 101.8321 258.3076 13.21827864131885
ONEWEB-0602             
1 54666U 22166AA  25231.72734546 -.00000094  00000+0 -25841-3 0  9992
2 54666  87.9256 304.1571 0002445  91.9730 268.1684 13.21875799131722
ONEWEB-0603             
1 54667U 22166AB  25231.73251200 -.00000131  00000+0 -34767-3 0  9994
2 54667  87.9249 304.0917 0002269  98.9579 261.1812 13.21828077131655
ONEWEB-0604             
1 54668U 22166AC  25231.64423081 -.00000010  00000+0 -55675-4 0  9991
2 54668  87.9256 304.1328 0002234  95.7325 264.4064 13.21827174131604
ONEWEB-0605             
1 54669U 22166AD  25232.24349959  .00000036  00000+0  55269-4 0  9995
2 54669  87.9252 304.0440 0002491 110.0176 250.1226 13.21822770132223
ONEWEB-0606             
1 54670U 22166AE  25231.73569574 -.00000066  00000+0 -19075-3 0  9996
2 54670  87.9253 304.1559 0001799  97.3244 262.8094 13.21826722131741
ONEWEB-0607             
1 54671U 22166AF  25231.70260319  .00000023  00000+0  24834-4 0  9990
2 54671  87.9252 304.1268 0002188  98.7250 261.4132 13.21825627131711
ONEWEB-0608             
1 54672U 22166AG  25231.70885131  .00000032  00000+0  45129-4 0  9996
2 54672  87.9246 304.1107 0002531 102.3625 257.7792 13.21828253131726
ONEWEB-0610             
1 54673U 22166AH  25231.76565098  .00000026  00000+0  32329-4 0  9991
2 54673  87.9252 304.1349 0002602 103.7332 256.4091 13.21825380131637
ONEWEB-0611             
1 54674U 22166AJ  25231.75932840  .00000343  00000+0  79780-3 0  9997
2 54674  87.9249 304.1321 0001840  92.7901 267.3444 13.21826519131623
ONEWEB-0612             
1 54675U 22166AK  25231.69627122  .00000033  00000+0  47760-4 0  9995
2 54675  87.9252 304.1226 0002204 100.0518 260.0865 13.21826887131607
